start=new Date('2022-09-16T00:00:00.000Z').valueOf();
sats=[{"PERIAPSIS":"546.197","TLE_LINE1":"1 44944U 20001AG  22258.73962504  .00002449  00000-0  18322-3 0  9991","ARG_OF_PERICENTER":"76.7227","EPOCH":"2022-09-15T17:45:03.603456","APOAPSIS":"548.204","SEMIMAJOR_AXIS":"6925.335","REF_FRAME":"TEME","GP_ID":"212677885","TLE_LINE2":"2 44944  53.0535 272.1443 0001449  76.7227 283.3924 15.06404356148569","INCLINATION":"53.0535","OBJECT_TYPE":"PAYLOAD","DECAY_DATE":null,"MEAN_MOTION_DOT":"0.00002449","RCS_SIZE":"LARGE","CLASSIFICATION_TYPE":"U","RA_OF_ASC_NODE":"272.1443","MEAN_ANOMALY":"283.3924","MEAN_ELEMENT_THEORY":"SGP4","CENTER_NAME":"EARTH","LAUNCH_DATE":"2020-01-07","MEAN_MOTION":"15.06404356","SITE":"AFETR","ELEMENT_SET_NO":"999","NORAD_CAT_ID":"44944","FILE":"3575050","OBJECT_ID":"2020-001AG","OBJECT_NAME":"STARLINK-1108","BSTAR":"0.00018322000000","MEAN_MOTION_DDOT":"0.0000000000000","PERIOD":"95.592","REV_AT_EPOCH":"14856","ECCENTRICITY":"0.00014490","EPHEMERIS_TYPE":"0","COUNTRY_CODE":"US","TIME_SYSTEM":"UTC"},{"COUNTRY_CODE":"US","EPHEMERIS_TYPE":"0","TIME_SYSTEM":"UTC","BSTAR":"0.00021768000000","ECCENTRICITY":"0.00013960","MEAN_MOTION_DDOT":"0.0000000000000","PERIOD":"95.592","REV_AT_EPOCH":"14851","OBJECT_ID":"2020-001AH","OBJECT_NAME":"STARLINK-1109","MEAN_MOTION":"15.06401490","LAUNCH_DATE":"2020-01-07","CENTER_NAME":"EARTH","SITE":"AFETR","NORAD_CAT_ID":"44945","FILE":"3574601","ELEMENT_SET_NO":"999","MEAN_ANOMALY":"288.9286","RCS_SIZE":"LARGE","MEAN_MOTION_DOT":"0.00002962","CLASSIFICATION_TYPE":"U","RA_OF_ASC_NODE":"273.4899","MEAN_ELEMENT_THEORY":"SGP4","TLE_LINE2":"2 44945  53.0538 273.4899 0001396  71.1855 288.9286 15.06401490148512","GP_ID":"212641974","DECAY_DATE":null,"INCLINATION":"53.0538","OBJECT_TYPE":"PAYLOAD","APOAPSIS":"548.176","EPOCH":"2022-09-15T10:29:50.159040","REF_FRAME":"TEME","SEMIMAJOR_AXIS":"6925.344","PERIAPSIS":"546.242","ARG_OF_PERICENTER":"71.1855","TLE_LINE1":"1 44945U 20001AH  22258.43738610  .00002962  00000-0  21768-3 0  9996"},{"REV_AT_EPOCH":"14873","PERIOD":"94.936","MEAN_MOTION_DDOT":"0.0000000000000","ECCENTRICITY":"0.00019340","BSTAR":"0.00075507000000","TIME_SYSTEM":"UTC","EPHEMERIS_TYPE":"0","COUNTRY_CODE":"US","ELEMENT_SET_NO":"999","FILE":"3574959","NORAD_CAT_ID":"44946","SITE":"AFETR","MEAN_MOTION":"15.16804442","LAUNCH_DATE":"2020-01-07","CENTER_NAME":"EARTH","OBJECT_NAME":"STARLINK-1110","OBJECT_ID":"2020-001AJ","OBJECT_TYPE":"PAYLOAD","INCLINATION":"53.0058","DECAY_DATE":null,"GP_ID":"212657024","TLE_LINE2":"2 44946  53.0058 255.3484 0001934  98.7175 261.4037 15.16804442148736","MEAN_ELEMENT_THEORY":"SGP4","RA_OF_ASC_NODE":"255.3484","RCS_SIZE":"LARGE","CLASSIFICATION_TYPE":"U","MEAN_MOTION_DOT":"0.00014736","MEAN_ANOMALY":"261.4037","TLE_LINE1":"1 44946U 20001AJ  22258.43099162  .00014736  00000-0  75507-3 0  9991","ARG_OF_PERICENTER":"98.7175","PERIAPSIS":"514.175","SEMIMAJOR_AXIS":"6893.643","REF_FRAME":"TEME","EPOCH":"2022-09-15T10:20:37.675968","APOAPSIS":"516.841"},{"NORAD_CAT_ID":"44947","FILE":"3574601","ELEMENT_SET_NO":"999","LAUNCH_DATE":"2020-01-07","CENTER_NAME":"EARTH","MEAN_MOTION":"15.06392509","SITE":"AFETR","OBJECT_NAME":"STARLINK-1116","OBJECT_ID":"2020-001AK","ECCENTRICITY":"0.00015950","MEAN_MOTION_DDOT":"0.0000000000000","REV_AT_EPOCH":"14852","PERIOD":"95.593","BSTAR":"0.00001646200000","TIME_SYSTEM":"UTC","COUNTRY_CODE":"US","EPHEMERIS_TYPE":"0","ARG_OF_PERICENTER":"49.2943","TLE_LINE1":"1 44947U 20001AK  22258.45950279 -.00000036  00000-0  16462-4 0  9994","PERIAPSIS":"546.132","REF_FRAME":"TEME","SEMIMAJOR_AXIS":"6925.372","APOAPSIS":"548.341","EPOCH":"2022-09-15T11:01:41.041056","DECAY_DATE":null,"INCLINATION":"53.0540","OBJECT_TYPE":"PAYLOAD","TLE_LINE2":"2 44947  53.0540 273.3898 0001595  49.2943 310.8184 15.06392509148523","GP_ID":"212642473","MEAN_ELEMENT_THEORY":"SGP4","MEAN_ANOMALY":"310.8184","RCS_SIZE":"LARGE","CLASSIFICATION_TYPE":"U","MEAN_MOTION_DOT":"-0.00000036","RA_OF_ASC_NODE":"273.3898"},{"BSTAR":"0.00005515500000","MEAN_MOTION_DDOT":"0.0000000000000","PERIOD":"95.592","REV_AT_EPOCH":"14852","ECCENTRICITY":"0.00014210","EPHEMERIS_TYPE":"0","COUNTRY_CODE":"US","TIME_SYSTEM":"UTC","LAUNCH_DATE":"2020-01-07","MEAN_MOTION":"15.06398709","CENTER_NAME":"EARTH","SITE":"AFETR","ELEMENT_SET_NO":"999","NORAD_CAT_ID":"44949","FILE":"3574601","OBJECT_ID":"2020-001AM","OBJECT_NAME":"STARLINK-1122","GP_ID":"212641226","TLE_LINE2":"2 44949  53.0544 273.2768 0001421  66.6699 293.4439 15.06398709148520","INCLINATION":"53.0544","OBJECT_TYPE":"PAYLOAD","DECAY_DATE":null,"RCS_SIZE":"LARGE","MEAN_MOTION_DOT":"0.00000540","CLASSIFICATION_TYPE":"U","RA_OF_ASC_NODE":"273.2768","MEAN_ANOMALY":"293.4439","MEAN_ELEMENT_THEORY":"SGP4","PERIAPSIS":"546.233","TLE_LINE1":"1 44949U 20001AM  22258.48530318  .00000540  00000-0  55155-4 0  9998","ARG_OF_PERICENTER":"66.6699","EPOCH":"2022-09-15T11:38:50.194752","APOAPSIS":"548.202","SEMIMAJOR_AXIS":"6925.353","REF_FRAME":"TEME"},{"ECCENTRICITY":"0.00020480","MEAN_MOTION_DDOT":"0.0000000000000","PERIOD":"95.220","REV_AT_EPOCH":"14855","BSTAR":"0.00177230000000","TIME_SYSTEM":"UTC","COUNTRY_CODE":"US","EPHEMERIS_TYPE":"0","NORAD_CAT_ID":"44950","FILE":"3574962","ELEMENT_SET_NO":"999","CENTER_NAME":"EARTH","LAUNCH_DATE":"2020-01-07","MEAN_MOTION":"15.12290143","SITE":"AFETR","OBJECT_NAME":"STARLINK-1125","OBJECT_ID":"2020-001AN","DECAY_DATE":null,"INCLINATION":"53.0505","OBJECT_TYPE":"PAYLOAD","TLE_LINE2":"2 44950  53.0505 269.9666 0002048  81.9324 278.1900 15.12290143148555","GP_ID":"212656877","MEAN_ELEMENT_THEORY":"SGP4","MEAN_ANOMALY":"278.1900","MEAN_MOTION_DOT":"0.00030867","RCS_SIZE":"LARGE","CLASSIFICATION_TYPE":"U","RA_OF_ASC_NODE":"269.9666","ARG_OF_PERICENTER":"81.9324","TLE_LINE1":"1 44950U 20001AN  22258.31367808  .00030867  00000-0  17723-2 0  9996","PERIAPSIS":"527.805","REF_FRAME":"TEME","SEMIMAJOR_AXIS":"6907.355","APOAPSIS":"530.634","EPOCH":"2022-09-15T07:31:41.786112"},{"BSTAR":"0.00104770000000","PERIOD":"94.952","REV_AT_EPOCH":"15000","MEAN_MOTION_DDOT":"0.0000000000000","ECCENTRICITY":"0.00022010","EPHEMERIS_TYPE":"0","COUNTRY_CODE":"US","TIME_SYSTEM":"UTC","SITE":"AFETR","LAUNCH_DATE":"2020-01-07","MEAN_MOTION":"15.16559229","CENTER_NAME":"EARTH","ELEMENT_SET_NO":"999","FILE":"3574601","NORAD_CAT_ID":"44951","OBJECT_ID":"2020-001AP","OBJECT_NAME":"STARLINK-1126","GP_ID":"212642727","TLE_LINE2":"2 44951  53.0055 256.4683 0002201  97.3295 262.7948 15.16559229150006","OBJECT_TYPE":"PAYLOAD","INCLINATION":"53.0055","DECAY_DATE":null,"RA_OF_ASC_NODE":"256.4683","MEAN_MOTION_DOT":"0.00020440","RCS_SIZE":"LARGE","CLASSIFICATION_TYPE":"U","MEAN_ANOMALY":"262.7948","MEAN_ELEMENT_THEORY":"SGP4","PERIAPSIS":"514.733","TLE_LINE1":"1 44951U 20001AP  22258.41334433  .00020440  00000-0  10477-2 0  9991","ARG_OF_PERICENTER":"97.3295","EPOCH":"2022-09-15T09:55:12.950112","APOAPSIS":"517.768","SEMIMAJOR_AXIS":"6894.386","REF_FRAME":"TEME"},{"EPOCH":"2022-09-15T17:34:27.254496","APOAPSIS":"548.322","SEMIMAJOR_AXIS":"6925.341","REF_FRAME":"TEME","PERIAPSIS":"546.090","TLE_LINE1":"1 44952U 20001AQ  22258.73225989  .00000759  00000-0  69825-4 0  9996","ARG_OF_PERICENTER":"74.9547","RA_OF_ASC_NODE":"272.1772","CLASSIFICATION_TYPE":"U","RCS_SIZE":"LARGE","MEAN_MOTION_DOT":"0.00000759","MEAN_ANOMALY":"285.1621","MEAN_ELEMENT_THEORY":"SGP4","GP_ID":"212678135","TLE_LINE2":"2 44952  53.0550 272.1772 0001612  74.9547 285.1621 15.06402435148567","OBJECT_TYPE":"PAYLOAD","INCLINATION":"53.0550","DECAY_DATE":null,"OBJECT_ID":"2020-001AQ","OBJECT_NAME":"STARLINK-1117","SITE":"AFETR","CENTER_NAME":"EARTH","LAUNCH_DATE":"2020-01-07","MEAN_MOTION":"15.06402435","ELEMENT_SET_NO":"999","FILE":"3575050","NORAD_CAT_ID":"44952","EPHEMERIS_TYPE":"0","COUNTRY_CODE":"US","TIME_SYSTEM":"UTC","BSTAR":"0.00006982500000","PERIOD":"95.592","REV_AT_EPOCH":"14856","MEAN_MOTION_DDOT":"0.0000000000000","ECCENTRICITY":"0.00016120"},{"MEAN_ELEMENT_THEORY":"SGP4","MEAN_ANOMALY":"270.1967","RA_OF_ASC_NODE":"273.2816","RCS_SIZE":"LARGE","CLASSIFICATION_TYPE":"U","MEAN_MOTION_DOT":"0.00000135","DECAY_DATE":null,"OBJECT_TYPE":"PAYLOAD","INCLINATION":"53.0561","TLE_LINE2":"2 44953  53.0561 273.2816 0001452  89.9188 270.1967 15.06391364149814","GP_ID":"212656866","REF_FRAME":"TEME","SEMIMAJOR_AXIS":"6925.375","APOAPSIS":"548.246","EPOCH":"2022-09-15T11:37:28.579584","ARG_OF_PERICENTER":"89.9188","TLE_LINE1":"1 44953U 20001AR  22258.48435856  .00000135  00000-0  27987-4 0  9996","PERIAPSIS":"546.234","TIME_SYSTEM":"UTC","COUNTRY_CODE":"US","EPHEMERIS_TYPE":"0","ECCENTRICITY":"0.00014520","PERIOD":"95.593","REV_AT_EPOCH":"14981","MEAN_MOTION_DDOT":"0.0000000000000","BSTAR":"0.00002798700000","OBJECT_NAME":"STARLINK-1124","OBJECT_ID":"2020-001AR","FILE":"3574961","NORAD_CAT_ID":"44953","ELEMENT_SET_NO":"999","SITE":"AFETR","CENTER_NAME":"EARTH","LAUNCH_DATE":"2020-01-07","MEAN_MOTION":"15.06391364"},{"TIME_SYSTEM":"UTC","COUNTRY_CODE":"US","EPHEMERIS_TYPE":"0","ECCENTRICITY":"0.00013960","MEAN_MOTION_DDOT":"0.0000000000000","PERIOD":"95.592","REV_AT_EPOCH":"14881","BSTAR":"0.00015317000000","OBJECT_NAME":"STARLINK-1066","OBJECT_ID":"2020-001AS","NORAD_CAT_ID":"44954","FILE":"3574938","ELEMENT_SET_NO":"999","LAUNCH_DATE":"2020-01-07","CENTER_NAME":"EARTH","MEAN_MOTION":"15.06400506","SITE":"AFETR","MEAN_ELEMENT_THEORY":"SGP4","MEAN_ANOMALY":"283.1345","RCS_SIZE":"LARGE","CLASSIFICATION_TYPE":"U","MEAN_MOTION_DOT":"0.00002001","RA_OF_ASC_NODE":"251.4414","DECAY_DATE":null,"INCLINATION":"53.0552","OBJECT_TYPE":"PAYLOAD","TLE_LINE2":"2 44954  53.0552 251.4414 0001396  76.9799 283.1345 15.06400506148810","GP_ID":"212656600","REF_FRAME":"TEME","SEMIMAJOR_AXIS":"6925.347","APOAPSIS":"548.179","EPOCH":"2022-09-15T21:30:38.900448","ARG_OF_PERICENTER":"76.9799","TLE_LINE1":"1 44954U 20001AS  22258.89628357  .00002001  00000-0  15317-3 0  9999","PERIAPSIS":"546.245"}];
